0 JB-3 B
1 27550U 02049A   13282.49338587  .00012658  00000-0  25758-3 0  3993
2 27550 097.1099 267.8093 0003494 319.6862 154.9283 15.46398952610568
0 JB-3 B
1 27550U 02049A   13282.87189980  .00013213  00000-0  26867-3 0  4009
2 27550 097.1096 268.1807 0003686 317.4774 102.9697 15.46411726610627
0 JB-3 B
1 27550U 02049A   13283.19463255  .00013903  00000-0  28245-3 0  4014
2 27550 097.1097 268.4971 0003932 315.7315 100.2329 15.46424202610670
0 JB-3 B
1 27550U 02049A   13283.27223547  .00014250  00000-0  28941-3 0  4021
2 27550 097.1098 268.5734 0003784 315.5666 172.1456 15.46428021610684
0 JB-3 B
1 27550U 02049A   13283.70048611  .00015072  00000-0  30582-3 0  4023
2 27550 097.1103 268.9944 0003625 315.0206 035.2804 15.46444543610747
0 JB-3 B
1 27550U 02049A   13283.84675890  .00015754  00000-0  31947-3 0  4037
2 27550 097.1103 269.1376 0003604 313.5959 130.5169 15.46452812610778
0 JB-3 B
1 27550U 02049A   13284.18879630  .00016459  00000-0  33349-3 0  4045
2 27550 097.1110 269.4729 0003517 309.2873 237.7964 15.46467441610824
0 JB-3 B
1 27550U 02049A   13284.50623978  .00017107  00000-0  34636-3 0  4055
2 27550 097.1112 269.7849 0003226 308.1681 205.0724 15.46481409610871
0 JB-3 B
1 27550U 02049A   13285.53518916  .00017850  00000-0  36082-3 0  4089
2 27550 097.1115 270.7950 0003372 302.8159 175.2349 15.46520469611032
0 JB-3 B
1 27550U 02049A   13285.84571192  .00017788  00000-0  35945-3 0  4096
2 27550 097.1114 271.0997 0003316 303.3321 102.4077 15.46530786611089
0 JB-3 B
1 27550U 02049A   13286.23611377  .00017244  00000-0  34841-3 0  4103
2 27550 097.1115 271.4832 0003249 303.3239 114.5493 15.46541777611140
0 JB-3 B
1 27550U 02049A   13286.56891133  .00016744  00000-0  33826-3 0  4116
2 27550 097.1113 271.8092 0003256 298.1314 171.3898 15.46550905611191
0 JB-3 B
1 27550U 02049A   13286.88827619  .00016311  00000-0  32950-3 0  4127
2 27550 097.1117 272.1225 0003140 296.4528 149.9855 15.46559277611248
0 JB-3 B
1 27550U 02049A   13287.23105324  .00015917  00000-0  32150-3 0  4133
2 27550 097.1116 272.4595 0002940 291.0417 262.5919 15.46568431611295
0 JB-3 B
1 27550U 02049A   13287.54636765  .00015689  00000-0  31681-3 0  4140
2 27550 097.1113 272.7686 0003000 289.5589 218.4808 15.46577501611347
0 JB-3 B
1 27550U 02049A   13287.91751984  .00015644  00000-0  31579-3 0  4150
2 27550 097.1112 273.1327 0002953 286.5177 126.6245 15.46588864611405
0 JB-3 B
1 27550U 02049A   13288.24162275  .00015701  00000-0  31683-3 0  4167
2 27550 097.1113 273.4508 0002918 284.7260 131.7515 15.46599519611455
0 JB-3 B
1 27550U 02049A   13288.57411197  .00016034  00000-0  32335-3 0  4179
2 27550 097.1112 273.7770 0002785 282.8873 183.6063 15.46611893611509
0 JB-3 B
1 27550U 02049A   13288.89367647  .00016340  00000-0  32934-3 0  4180
2 27550 097.1108 274.0904 0002829 280.1145 164.4930 15.46623861611552
0 JB-3 B
1 27550U 02049A   13289.23569444  .00016981  00000-0  34200-3 0  4198
2 27550 097.1110 274.4263 0002842 276.5272 271.1549 15.46638832611604
0 JB-3 B
1 27550U 02049A   13289.55077367  .00017438  00000-0  35097-3 0  4206
2 27550 097.1104 274.7350 0002730 273.4294 227.4434 15.46651929611657
0 JB-3 B
1 27550U 02049A   13289.86470100  .00017934  00000-0  36072-3 0  4218
2 27550 097.1104 275.0431 0002829 272.3660 175.3013 15.46665363611702
0 JB-3 B
1 27550U 02049A   13290.24748994  .00018523  00000-0  37228-3 0  4221
2 27550 097.1104 275.4188 0002805 271.3003 146.3490 15.46681890611765
0 JB-3 B
1 27550U 02049A   13290.38524005  .00018756  00000-0  37685-3 0  4237
2 27550 097.1103 275.5544 0002772 270.7817 193.3675 15.46688080611787
0 JB-3 B
1 27550U 02049A   13290.71058311  .00019011  00000-0  38176-3 0  4248
2 27550 097.1103 275.8738 0002712 268.6824 205.8187 15.46701288611832
0 JB-3 B
1 27550U 02049A   13290.89959734  .00019132  00000-0  38408-3 0  4259
2 27550 097.1102 276.0591 0002723 268.2069 178.0599 15.46709037611861
0 JB-3 B
1 27550U 02049A   13291.23935185  .00019290  00000-0  38705-3 0  4268
2 27550 097.1103 276.3930 0002740 266.9659 269.8705 15.46722790611916
0 JB-3 B
1 27550U 02049A   13291.55631109  .00019246  00000-0  38602-3 0  4270
2 27550 097.1102 276.7040 0002733 265.1976 235.3749 15.46734693611962
0 JB-3 B
1 27550U 02049A   13291.86519836  .00019252  00000-0  38597-3 0  4287
2 27550 097.1103 277.0071 0002730 263.3979 156.0073 15.46746462612014
0 JB-3 B
1 27550U 02049A   13292.21357639  .00019070  00000-0  38219-3 0  4298
2 27550 097.1104 277.3492 0002671 261.8175 296.1848 15.46759021612066
0 JB-3 B
1 27550U 02049A   13292.52823721  .00018891  00000-0  37847-3 0  4300
2 27550 097.1104 277.6581 0002717 259.1630 249.8265 15.46770222612115
0 JB-3 B
1 27550U 02049A   13292.90480921  .00018819  00000-0  37687-3 0  4316
2 27550 097.1106 278.0277 0002735 255.6895 188.8196 15.46783915612172
0 JB-3 B
1 27550U 02049A   13293.25025463  .00018731  00000-0  37496-3 0  4323
2 27550 097.1104 278.3673 0002703 253.5273 313.3084 15.46796541612221
0 JB-3 B
1 27550U 02049A   13293.56175613  .00018637  00000-0  37294-3 0  4332
2 27550 097.1105 278.6734 0002741 250.9495 249.3354 15.46807736612274
0 JB-3 B
1 27550U 02049A   13293.87555365  .00018647  00000-0  37300-3 0  4342
2 27550 097.1104 278.9815 0002783 247.9185 198.6061 15.46819399612329
0 JB-3 B
1 27550U 02049A   13294.21623843  .00018571  00000-0  37132-3 0  4358
2 27550 097.1105 279.3160 0002832 245.6990 296.7032 15.46831696612379
0 JB-3 B
1 27550U 02049A   13294.53364829  .00018388  00000-0  36756-3 0  4367
2 27550 097.1105 279.6279 0002899 243.3027 265.4660 15.46842540612428
0 JB-3 B
1 27550U 02049A   13294.90993508  .00018354  00000-0  36671-3 0  4370
2 27550 097.1117 279.9982 0002948 239.8983 202.9019 15.46856046612487
0 JB-3 B
1 27550U 02049A   13295.25019676  .00018249  00000-0  36447-3 0  4389
2 27550 097.1116 280.3325 0002936 238.0599 298.3091 15.46868207612531
0 JB-3 B
1 27550U 02049A   13295.56705233  .00018040  00000-0  36020-3 0  4391
2 27550 097.1115 280.6436 0002996 235.3792 264.3128 15.46878713612589
0 JB-3 B
1 27550U 02049A   13295.88111484  .00018134  00000-0  36190-3 0  4409
2 27550 097.1110 280.9518 0003013 233.5208 213.9675 15.46890524612638
0 JB-3 B
1 27550U 02049A   13296.22055556  .00018187  00000-0  36280-3 0  4414
2 27550 097.1113 281.2856 0003093 230.6366 305.8971 15.46903255612682
